{"type": "FeatureCollection", "features": [ {"type": "Feature", "properties": {"norad_id": 66598, "name": "STARLINK-35981", "group": "last-30-days", "lat": -37.381431602993025, "lon": 130.568024020877, "alt_km": 417.73281731532006, "timestamp": "2025-12-13T22:39:28.444347+00:00", "meta": {"OBJECT_NAME": "STARLINK-35981", "OBJECT_ID": "2025-270L", "EPOCH": "2025-12-13T06:00:02.000160", "MEAN_MOTION": 15.50672913, "ECCENTRICITY": 0.00016675, "INCLINATION": 43, "RA_OF_ASC_NODE": 189.7055, "ARG_OF_PERICENTER": 263.059, "MEAN_ANOMALY": 115.2386, "EPHEMERIS_TYPE": 0, "CLASSIFICATION_TYPE": "U", "NORAD_CAT_ID": 66598, "ELEMENT_SET_NO": 999, "REV_AT_EPOCH": 432, "BSTAR": -0.0035886268, "MEAN_MOTION_DOT": -0.00206119, "MEAN_MOTION_DDOT": 0}, "tle": {"line1": "1 66598U 25270L   25347.25002315 -.00206119  00000+0 -35886-2 0  9991", "line2": "2 66598  43.0000 189.7055 0001667 263.0590 115.2386 15.50672913  4327"}}, "geometry": {"type": "Point", "coordinates": [130.568024020877, -37.381431602993025]}}, {"type": "Feature", "properties": {"norad_id": 66599, "name": "STARLINK-35930", "group": "last-30-days", "lat": -36.628024130599556, "lon": 132.72070922369775, "alt_km": 418.48948166602895, "timestamp": "2025-12-13T22:39:28.444357+00:00", "meta": {"OBJECT_NAME": "STARLINK-35930", "OBJECT_ID": "2025-270M", "EPOCH": "2025-12-13T06:00:02.000160", "MEAN_MOTION": 15.50711397, "ECCENTRICITY": 5.622e-05, "INCLINATION": 42.9999, "RA_OF_ASC_NODE": 189.7014, "ARG_OF_PERICENTER": 266.4002, "MEAN_ANOMALY": 113.8059, "EPHEMERIS_TYPE": 0, "CLASSIFICATION_TYPE": "U", "NORAD_CAT_ID": 66599, "ELEMENT_SET_NO": 999, "REV_AT_EPOCH": 448, "BSTAR": -0.0047240367, "MEAN_MOTION_DOT": -0.00269401, "MEAN_MOTION_DDOT": 0}, "tle": {"line1": "1 66599U 25270M   25347.25002315 -.00269401  00000+0 -47240-2 0  9992", "line2": "2 66599  42.9999 189.7014 0000562 266.4002 113.8059 15.50711397  4484"}}, "geometry": {"type": "Point", "coordinates": [132.72070922369775, -36.628024130599556]}}, {"type": "Feature", "properties": {"norad_id": 66600, "name": "STARLINK-35980", "group": "last-30-days", "lat": -35.79697791877941, "lon": 134.9309145418081, "alt_km": 416.8491932454144, "timestamp": "2025-12-13T22:39:28.444369+00:00", "meta": {"OBJECT_NAME": "STARLINK-35980", "OBJECT_ID": "2025-270N", "EPOCH": "2025-12-13T06:00:02.000160", "MEAN_MOTION": 15.50650481, "ECCENTRICITY": 0.0002868, "INCLINATION": 42.9999, "RA_OF_ASC_NODE": 189.6955, "ARG_OF_PERICENTER": 267.1264, "MEAN_ANOMALY": 115.0118, "EPHEMERIS_TYPE": 0, "CLASSIFICATION_TYPE": "U", "NORAD_CAT_ID": 66600, "ELEMENT_SET_NO": 999, "REV_AT_EPOCH": 438, "BSTAR": -0.002942873, "MEAN_MOTION_DOT": -0.00169763, "MEAN_MOTION_DDOT": 0}, "tle": {"line1": "1 66600U 25270N   25347.25002315 -.00169763  00000+0 -29429-2 0  9994", "line2": "2 66600  42.9999 189.6955 0002868 267.1264 115.0118 15.50650481  4384"}}, "geometry": {"type": "Point", "coordinates": [134.9309145418081, -35.79697791877941]}}, {"type": "Feature", "properties": {"norad_id": 66601, "name": "STARLINK-35978", "group": "last-30-days", "lat": -34.95499094443633, "lon": 137.02571927863352, "alt_km": 417.5541197239718, "timestamp": "2025-12-13T22:39:28.444379+00:00", "meta": {"OBJECT_NAME": "STARLINK-35978", "OBJECT_ID": "2025-270P", "EPOCH": "2025-12-13T06:00:02.000160", "MEAN_MOTION": 15.50668125, "ECCENTRICITY": 0.00015132, "INCLINATION": 42.9999, "RA_OF_ASC_NODE": 189.6908, "ARG_OF_PERICENTER": 277.4216, "MEAN_ANOMALY": 106.6193, "EPHEMERIS_TYPE": 0, "CLASSIFICATION_TYPE": "U", "NORAD_CAT_ID": 66601, "ELEMENT_SET_NO": 999, "REV_AT_EPOCH": 432, "BSTAR": -0.003203892, "MEAN_MOTION_DOT": -0.00184525, "MEAN_MOTION_DDOT": 0}, "tle": {"line1": "1 66601U 25270P   25347.25002315 -.00184525  00000+0 -32039-2 0  9999", "line2": "2 66601  42.9999 189.6908 0001513 277.4216 106.6193 15.50668125  4327"}}, "geometry": {"type": "Point", "coordinates": [137.02571927863352, -34.95499094443633]}}, {"type": "Feature", "properties": {"norad_id": 66602, "name": "STARLINK-36050", "group": "last-30-days", "lat": -41.61711428003661, "lon": 78.17297433539717, "alt_km": 449.4457392432196, "timestamp": "2025-12-13T22:39:28.444392+00:00", "meta": {"OBJECT_NAME": "STARLINK-36050", "OBJECT_ID": "2025-270Q", "EPOCH": "2025-12-13T06:00:02.000160", "MEAN_MOTION": 15.42853693, "ECCENTRICITY": 0.0001403, "INCLINATION": 42.9997, "RA_OF_ASC_NODE": 189.7456, "ARG_OF_PERICENTER": 265.3078, "MEAN_ANOMALY": 96.2055, "EPHEMERIS_TYPE": 0, "CLASSIFICATION_TYPE": "U", "NORAD_CAT_ID": 66602, "ELEMENT_SET_NO": 999, "REV_AT_EPOCH": 438, "BSTAR": -0.055070349, "MEAN_MOTION_DOT": -0.02218391, "MEAN_MOTION_DDOT": 0}, "tle": {"line1": "1 66602U 25270Q   25347.25002315 -.02218391  00000+0 -55070-1 0  9990", "line2": "2 66602  42.9997 189.7456 0001403 265.3078  96.2055 15.42853693  4389"}}, "geometry": {"type": "Point", "coordinates": [78.17297433539717, -41.61711428003661]}}, {"type": "Feature", "properties": {"norad_id": 66603, "name": "STARLINK-36048", "group": "last-30-days", "lat": -33.198460180786974, "lon": 141.01737677367967, "alt_km": 418.1160804606343, "timestamp": "2025-12-13T22:39:28.444405+00:00", "meta": {"OBJECT_NAME": "STARLINK-36048", "OBJECT_ID": "2025-270R", "EPOCH": "2025-12-13T06:00:02.000160", "MEAN_MOTION": 15.5075907, "ECCENTRICITY": 0.00016798, "INCLINATION": 43, "RA_OF_ASC_NODE": 189.6813, "ARG_OF_PERICENTER": 254.014, "MEAN_ANOMALY": 133.8541, "EPHEMERIS_TYPE": 0, "CLASSIFICATION_TYPE": "U", "NORAD_CAT_ID": 66603, "ELEMENT_SET_NO": 999, "REV_AT_EPOCH": 438, "BSTAR": -0.0062325736, "MEAN_MOTION_DOT": -0.00352281, "MEAN_MOTION_DDOT": 0}, "tle": {"line1": "1 66603U 25270R   25347.25002315 -.00352281  00000+0 -62326-2 0  9999", "line2": "2 66603  43.0000 189.6813 0001679 254.0140 133.8541 15.50759070  4384"}}, "geometry": {"type": "Point", "coordinates": [141.01737677367967, -33.198460180786974]}}, {"type": "Feature", "properties": {"norad_id": 66604, "name": "STARLINK-35977", "group": "last-30-days", "lat": -32.23807411600183, "lon": 143.02334564380556, "alt_km": 417.7877777949625, "timestamp": "2025-12-13T22:39:28.444416+00:00", "meta": {"OBJECT_NAME": "STARLINK-35977", "OBJECT_ID": "2025-270S", "EPOCH": "2025-12-13T06:00:02.000160", "MEAN_MOTION": 15.50717386, "ECCENTRICITY": 0.00017565, "INCLINATION": 42.9999, "RA_OF_ASC_NODE": 189.6768, "ARG_OF_PERICENTER": 260.2483, "MEAN_ANOMALY": 129.5475, "EPHEMERIS_TYPE": 0, "CLASSIFICATION_TYPE": "U", "NORAD_CAT_ID": 66604, "ELEMENT_SET_NO": 999, "REV_AT_EPOCH": 448, "BSTAR": -0.0050098716, "MEAN_MOTION_DOT": -0.00285217, "MEAN_MOTION_DDOT": 0}, "tle": {"line1": "1 66604U 25270S   25347.25002315 -.00285217  00000+0 -50099-2 0  9998", "line2": "2 66604  42.9999 189.6768 0001756 260.2483 129.5475 15.50717386  4487"}}, "geometry": {"type": "Point", "coordinates": [143.02334564380556, -32.23807411600183]}}, {"type": "Feature", "properties": {"norad_id": 66605, "name": "STARLINK-36052", "group": "last-30-days", "lat": -31.287946769111798, "lon": 144.9064060641355, "alt_km": 417.92148982186063, "timestamp": "2025-12-13T22:39:28.444426+00:00", "meta": {"OBJECT_NAME": "STARLINK-36052", "OBJECT_ID": "2025-270T", "EPOCH": "2025-12-13T06:00:02.000160", "MEAN_MOTION": 15.50769439, "ECCENTRICITY": 0.00016484, "INCLINATION": 43, "RA_OF_ASC_NODE": 189.6718, "ARG_OF_PERICENTER": 269.2433, "MEAN_ANOMALY": 122.4614, "EPHEMERIS_TYPE": 0, "CLASSIFICATION_TYPE": "U", "NORAD_CAT_ID": 66605, "ELEMENT_SET_NO": 999, "REV_AT_EPOCH": 448, "BSTAR": -0.0066681058, "MEAN_MOTION_DOT": -0.00375894, "MEAN_MOTION_DDOT": 0}, "tle": {"line1": "1 66605U 25270T   25347.25002315 -.00375894  00000+0 -66681-2 0  9994", "line2": "2 66605  43.0000 189.6718 0001648 269.2433 122.4614 15.50769439  4485"}}, "geometry": {"type": "Point", "coordinates": [144.9064060641355, -31.287946769111798]}}, {"type": "Feature", "properties": {"norad_id": 66606, "name": "STARLINK-36063", "group": "last-30-days", "lat": -29.241244071910863, "lon": 148.67691741815744, "alt_km": 417.8048380924847, "timestamp": "2025-12-13T22:39:28.444436+00:00", "meta": {"OBJECT_NAME": "STARLINK-36063", "OBJECT_ID": "2025-270U", "EPOCH": "2025-12-13T06:00:02.000160", "MEAN_MOTION": 15.50746275, "ECCENTRICITY": 0.00016135, "INCLINATION": 43.0001, "RA_OF_ASC_NODE": 189.662, "ARG_OF_PERICENTER": 265.5303, "MEAN_ANOMALY": 130.0122, "EPHEMERIS_TYPE": 0, "CLASSIFICATION_TYPE": "U", "NORAD_CAT_ID": 66606, "ELEMENT_SET_NO": 999, "REV_AT_EPOCH": 448, "BSTAR": -0.0059228759, "MEAN_MOTION_DOT": -0.0033535, "MEAN_MOTION_DDOT": 0}, "tle": {"line1": "1 66606U 25270U   25347.25002315 -.00335350  00000+0 -59229-2 0  9998", "line2": "2 66606  43.0001 189.6620 0001613 265.5303 130.0122 15.50746275  4488"}}, "geometry": {"type": "Point", "coordinates": [148.67691741815744, -29.241244071910863]}}, {"type": "Feature", "properties": {"norad_id": 66607, "name": "STARLINK-35993", "group": "last-30-days", "lat": -30.279593140156543, "lon": 146.80933674429545, "alt_km": 417.9969795110301, "timestamp": "2025-12-13T22:39:28.444447+00:00", "meta": {"OBJECT_NAME": "STARLINK-35993", "OBJECT_ID": "2025-270V", "EPOCH": "2025-12-13T06:00:02.000160", "MEAN_MOTION": 15.50762744, "ECCENTRICITY": 0.00015347, "INCLINATION": 43.0001, "RA_OF_ASC_NODE": 189.6674, "ARG_OF_PERICENTER": 262.7558, "MEAN_ANOMALY": 130.8672, "EPHEMERIS_TYPE": 0, "CLASSIFICATION_TYPE": "U", "NORAD_CAT_ID": 66607, "ELEMENT_SET_NO": 999, "REV_AT_EPOCH": 438, "BSTAR": -0.0064394761, "MEAN_MOTION_DOT": -0.0036349, "MEAN_MOTION_DDOT": 0}, "tle": {"line1": "1 66607U 25270V   25347.25002315 -.00363490  00000+0 -64395-2 0  9995", "line2": "2 66607  43.0001 189.6674 0001534 262.7558 130.8672 15.50762744  4387"}}, "geometry": {"type": "Point", "coordinates": [146.80933674429545, -30.279593140156543]}}]}